$$SOE
2460721.500000000, A.D. 2025-Feb-15 00:00:00.0000, -2.555755498616586E+08, 3.361430760715393E+08, -6.608455372585858E+07,
2460728.500000000, A.D. 2025-Feb-22 00:00:00.0000, -2.646632717960066E+08, 3.319640687343972E+08, -6.621537913104928E+07,
2460735.500000000, A.D. 2025-Mar-01 00:00:00.0000, -2.735889674693336E+08, 3.275819440963737E+08, -6.630567062346681E+07,
2460742.500000000, A.D. 2025-Mar-08 00:00:00.0000, -2.823497593171670E+08, 3.230024786632673E+08, -6.635600030174963E+07,
2460749.500000000, A.D. 2025-Mar-15 00:00:00.0000, -2.909429296025382E+08, 3.182313641327927E+08, -6.636694085256026E+07,
2460756.500000000, A.D. 2025-Mar-22 00:00:00.0000, -2.993659137286648E+08, 3.132742084212237E+08, -6.633906469436304E+07,
2460763.500000000, A.D. 2025-Mar-29 00:00:00.0000, -3.076162926555889E+08, 3.081365346872643E+08, -6.627294350198768E+07,
2460770.500000000, A.D. 2025-Apr-05 00:00:00.0000, -3.156917840749862E+08, 3.028237814596617E+08, -6.616914787946370E+07,
2460777.500000000, A.D. 2025-Apr-12 00:00:00.0000, -3.235902342501184E+08, 2.973413039464983E+08, -6.602824699163549E+07,
2460784.500000000, A.D. 2025-Apr-19 00:00:00.0000, -3.313096106873278E+08, 2.916943756212625E+08, -6.585080820478140E+07,
2460791.500000000, A.D. 2025-Apr-26 00:00:00.0000, -3.388479953467967E+08, 2.858881898599989E+08, -6.563739677286539E+07,
2460798.500000000, A.D. 2025-May-03 00:00:00.0000, -3.462035782596071E+08, 2.799278616281030E+08, -6.538857557383375E+07,
2460805.500000000, A.D. 2025-May-10 00:00:00.0000, -3.533746515042707E+08, 2.738184292072300E+08, -6.510490489393329E+07,
2460812.500000000, A.D. 2025-May-17 00:00:00.0000, -3.603596034885282E+08, 2.675648559052698E+08, -6.478694226322553E+07,
2460819.500000000, A.D. 2025-May-24 00:00:00.0000, -3.671569133456706E+08, 2.611720316807625E+08, -6.443524235943769E+07,
2460826.500000000, A.D. 2025-May-31 00:00:00.0000, -3.737651450114045E+08, 2.546447749800749E+08, -6.405035699001358E+07,
2460833.500000000, A.D. 2025-Jun-07 00:00:00.0000, -3.801829413670822E+08, 2.479878359807588E+08, -6.363283501440443E+07,
2460840.500000000, A.D. 2025-Jun-14 00:00:00.0000, -3.864090208004787E+08, 2.412059005649740E+08, -6.318322204216871E+07,
2460847.500000000, A.D. 2025-Jun-21 00:00:00.0000, -3.924421749535879E+08, 2.343035917447662E+08, -6.270206028388931E+07,
2460854.500000000, A.D. 2025-Jun-28 00:00:00.0000, -3.982812645136238E+08, 2.272854702961011E+08, -6.218988869472180E+07,
2460861.500000000, A.D. 2025-Jul-05 00:00:00.0000, -4.039252145511609E+08, 2.201560367497496E+08, -6.164724309288199E+07,
2460868.500000000, A.D. 2025-Jul-12 00:00:00.0000, -4.093730105861905E+08, 2.129197339283012E+08, -6.107465620844659E+07,
2460875.500000000, A.D. 2025-Jul-19 00:00:00.0000, -4.146236951816576E+08, 2.055809494504139E+08, -6.047265772552080E+07,
2460882.500000000, A.D. 2025-Jul-26 00:00:00.0000, -4.196763648435313E+08, 1.981440181419010E+08, -5.984177434007362E+07,
2460889.500000000, A.D. 2025-Aug-02 00:00:00.0000, -4.245301671517353E+08, 1.906132243717593E+08, -5.918252983618116E+07,
2460896.500000000, A.D. 2025-Aug-09 00:00:00.0000, -4.291842980890098E+08, 1.829928042955759E+08, -5.849544518268657E+07,
2460903.500000000, A.D. 2025-Aug-16 00:00:00.0000, -4.336379994818657E+08, 1.752869479407796E+08, -5.778103866127431E+07,
2460910.500000000, A.D. 2025-Aug-23 00:00:00.0000, -4.378905562525890E+08, 1.674998011483643E+08, -5.703982605027734E+07,
2460917.500000000, A.D. 2025-Aug-30 00:00:00.0000, -4.419412931453759E+08, 1.596354680834561E+08, -5.627232083490173E+07,
2460924.500000000, A.D. 2025-Sep-06 00:00:00.0000, -4.457895723377368E+08, 1.516980153133780E+08, -5.547903423111885E+07,
2460931.500000000, A.D. 2025-Sep-13 00:00:00.0000, -4.494347936026688E+08, 1.436914749696752E+08, -5.466047507244345E+07,
2460938.500000000, A.D. 2025-Sep-20 00:00:00.0000, -4.528763937425888E+08, 1.356198453505179E+08, -5.381714999360728E+07,
2460945.500000000, A.D. 2025-Sep-27 00:00:00.0000, -4.561138442289276E+08, 1.274870920748639E+08, -5.294956375268144E+07,
2460952.500000000, A.D. 2025-Oct-04 00:00:00.0000, -4.591466490585336E+08, 1.192971503264507E+08, -5.205821946189081E+07,
2460959.500000000, A.D. 2025-Oct-11 00:00:00.0000, -4.619743431969402E+08, 1.110539272451197E+08, -5.114361876987279E+07,
2460966.500000000, A.D. 2025-Oct-18 00:00:00.0000, -4.645964913204914E+08, 1.027613041928101E+08, -5.020626204359835E+07,
2460973.500000000, A.D. 2025-Oct-25 00:00:00.0000, -4.670126867124300E+08, 9.442313890682814E+07, -4.924664856129721E+07,
2460980.500000000, A.D. 2025-Nov-01 00:00:00.0000, -4.692225502678981E+08, 8.604326755680357E+07, -4.826527671808416E+07,
2460987.500000000, A.D. 2025-Nov-08 00:00:00.0000, -4.712257295682966E+08, 7.762550667408471E+07, -4.726264424952582E+07,
2460994.500000000, A.D. 2025-Nov-15 00:00:00.0000, -4.730218978735495E+08, 6.917365489479351E+07, -4.623924849139048E+07,
2461001.500000000, A.D. 2025-Nov-22 00:00:00.0000, -4.746107526275165E+08, 6.069149473678466E+07, -4.519558669485432E+07,
2461008.500000000, A.D. 2025-Nov-29 00:00:00.0000, -4.759920136285909E+08, 5.218279554642133E+07, -4.413215629091644E+07,
2461015.500000000, A.D. 2025-Dec-06 00:00:00.0000, -4.771654231424210E+08, 4.365131748059909E+07, -4.304945490692783E+07,
2461022.500000000, A.D. 2025-Dec-13 00:00:00.0000, -4.781307475234348E+08, 3.510081315608520E+07, -4.194798045116334E+07,
2461029.500000000, A.D. 2025-Dec-20 00:00:00.0000, -4.788877768507510E+08, 2.653502799277543E+07, -4.082823150235578E+07,
2461036.500000000, A.D. 2025-Dec-27 00:00:00.0000, -4.794363236488953E+08, 1.795770184441645E+07, -3.969070769348451E+07,
2461043.500000000, A.D. 2026-Jan-03 00:00:00.0000, -4.797762221505474E+08, 9.372571302062858E+06, -3.853591000617576E+07,
2461050.500000000, A.D. 2026-Jan-10 00:00:00.0000, -4.799073279914486E+08, 7.833719927779865E+05, -3.736434104151274E+07,
2461057.500000000, A.D. 2026-Jan-17 00:00:00.0000, -4.798295181049724E+08, -7.806159215739101E+06, -3.617650529623042E+07,
2461064.500000000, A.D. 2026-Jan-24 00:00:00.0000, -4.795426907382837E+08, -1.639228207959088E+07, -3.497290944961683E+07,
2461071.500000000, A.D. 2026-Jan-31 00:00:00.0000, -4.790467655666881E+08, -2.497125091739260E+07, -3.375406266390871E+07,
2461078.500000000, A.D. 2026-Feb-07 00:00:00.0000, -4.783416838451138E+08, -3.353931267847041E+07, -3.252047690858553E+07,
2461085.500000000, A.D. 2026-Feb-14 00:00:00.0000, -4.774274083444933E+08, -4.209270515370524E+07, -3.127266733314215E+07,
2461092.500000000, A.D. 2026-Feb-21 00:00:00.0000, -4.763039226864718E+08, -5.062765474988049E+07, -3.001115267684704E+07,
2461099.500000000, A.D. 2026-Feb-28 00:00:00.0000, -4.749712311623678E+08, -5.914037267232883E+07, -2.873645552187298E+07,
2461106.500000000, A.D. 2026-Mar-07 00:00:00.0000, -4.734293610970595E+08, -6.762705146481344E+07, -2.744910236070399E+07,
2461113.500000000, A.D. 2026-Mar-14 00:00:00.0000, -4.716783649857486E+08, -7.608386423793367E+07, -2.614962392351510E+07,
2461120.500000000, A.D. 2026-Mar-21 00:00:00.0000, -4.697183206232244E+08, -8.450696368542454E+07, -2.483855569229596E+07,
2461127.500000000, A.D. 2026-Mar-28 00:00:00.0000, -4.675493312358070E+08, -9.289247985774693E+07, -2.351643833320190E+07,
2461134.500000000, A.D. 2026-Apr-04 00:00:00.0000, -4.651715262213927E+08, -1.012365176581171E+08, -2.218381807079963E+07,
2461141.500000000, A.D. 2026-Apr-11 00:00:00.0000, -4.625850622269450E+08, -1.095351544206725E+08, -2.084124705906791E+07,
2461148.500000000, A.D. 2026-Apr-18 00:00:00.0000, -4.597901244078671E+08, -1.177844375770030E+08, -1.948928376458636E+07,
2461155.500000000, A.D. 2026-Apr-25 00:00:00.0000, -4.567869278272574E+08, -1.259803823960553E+08, -1.812849336514919E+07,
2461162.500000000, A.D. 2026-May-02 00:00:00.0000, -4.535757189686757E+08, -1.341189698270728E+08, -1.675944816932291E+07,
2461169.500000000, A.D. 2026-May-09 00:00:00.0000, -4.501567772428755E+08, -1.421961445119741E+08, -1.538272807414275E+07,
2461176.500000000, A.D. 2026-May-16 00:00:00.0000, -4.465304161162590E+08, -1.502078128289297E+08, -1.399892108470182E+07,
2461183.500000000, A.D. 2026-May-23 00:00:00.0000, -4.426969838152263E+08, -1.581498399447543E+08, -1.260862381724554E+07,
2461190.500000000, A.D. 2026-May-30 00:00:00.0000, -4.386568656910851E+08, -1.660180455569509E+08, -1.121244176951874E+07,
2461197.500000000, A.D. 2026-Jun-06 00:00:00.0000, -4.344104885705590E+08, -1.738082016002629E+08, -9.810989597485423E+06,
2461204.500000000, A.D. 2026-Jun-13 00:00:00.0000, -4.299583234354429E+08, -1.815160317196715E+08, -8.404891719072416E+06,
2461211.500000000, A.D. 2026-Jun-20 00:00:00.0000, -4.253008869409934E+08, -1.891372095831218E+08, -6.994782960242599E+06,
2461218.500000000, A.D. 2026-Jun-27 00:00:00.0000, -4.204387434783584E+08, -1.966673563734286E+08, -5.581309115742922E+06,
2461225.500000000, A.D. 2026-Jul-04 00:00:00.0000, -4.153725077881277E+08, -2.041020382352200E+08, -4.165127488372132E+06,
2461232.500000000, A.D. 2026-Jul-11 00:00:00.0000, -4.101028478788903E+08, -2.114367638110812E+08, -2.746907441486731E+06,
2461239.500000000, A.D. 2026-Jul-18 00:00:00.0000, -4.046304881668843E+08, -2.186669818446940E+08, -1.327330971852422E+06,
2461246.500000000, A.D. 2026-Jul-25 00:00:00.0000, -3.989562128226193E+08, -2.257880788531810E+08, 9.290669438996911E+04,
2461253.500000000, A.D. 2026-Aug-01 00:00:00.0000, -3.930808692887725E+08, -2.327953769225940E+08, 1.513096473566383E+06,
2461260.500000000, A.D. 2026-Aug-08 00:00:00.0000, -3.870053717685612E+08, -2.396841316682971E+08, 2.932514740918800E+06,
2461267.500000000, A.D. 2026-Aug-15 00:00:00.0000, -3.807307042842716E+08, -2.464495299154055E+08, 4.350422590093538E+06,
2461274.500000000, A.D. 2026-Aug-22 00:00:00.0000, -3.742579240813370E+08, -2.530866858835779E+08, 5.766065205173165E+06,
2461281.500000000, A.D. 2026-Aug-29 00:00:00.0000, -3.675881676810600E+08, -2.595906372558154E+08, 7.178671442949802E+06,
$$EOE